MIRATA                  
1 43015U 17073C   24190.63638465  .00020046  00000+0  92520-3 0  9990
2 43015  97.5923  75.1430 0166989 187.0492 172.8388 15.08616544359565
MAKERSAT 0              
1 43016U 17073D   24190.65804074  .00008945  00000+0  50417-3 0  9997
2 43016  97.5747  69.0530 0193866 209.7203 149.2896 14.98791084359135
RADFXSAT (FOX-1B)       
1 43017U 17073E   24190.89456008  .00006104  00000+0  37875-3 0  9992
2 43017  97.5749  65.6235 0208146 220.7947 137.7532 14.93791790358900
JILIN-1 04              
1 43022U 17074A   24191.19073880  .00008126  00000+0  36889-3 0  9996
2 43022  97.4880 282.8078 0006494 182.0927 178.0283 15.21037354365875
JILIN-1 05              
1 43023U 17074B   24191.20447410  .00006694  00000+0  30625-3 0  9993
2 43023  97.4906 283.3361 0006301 197.6203 162.4815 15.20841056365882
JILIN-1 06              
1 43024U 17074C   24191.19768043  .00005511  00000+0  27265-3 0  9993
2 43024  97.4900 282.0107 0008736 208.8225 151.2527 15.18189833365807
YAOGAN-30 03A           
1 43028U 17075A   24191.18951186  .00002891  00000+0  25855-3 0  9990
2 43028  34.9939 246.3315 0003092 235.7635 124.2778 14.95481805361078
YAOGAN-30 03B           
1 43029U 17075B   24191.16644400  .00002919  00000+0  26097-3 0  9997
2 43029  34.9932 246.0151 0005531 188.7257 171.3354 14.95486131361063
YAOGAN-30 03C           
1 43030U 17075C   24191.21061376  .00002895  00000+0  25895-3 0  9998
2 43030  34.9942 245.6400 0001832 352.1033   7.9644 14.95484927361053
COSMOS 2524             
1 43032U 17076A   24191.15693494  .00000048  00000+0  87721-4 0  9991
2 43032  67.1453 115.4824 0009504 293.1244  66.8839 13.97251406336738
LKW-1                   
1 43034U 17077A   24191.19914838  .00008320  00000+0  34800-3 0  9996
2 43034  97.2017 247.7658 0004499 111.3323 248.8396 15.23815376366906
ALCOMSAT 1              
1 43039U 17078A   24191.14771501 -.00000187  00000+0  00000+0 0  9990
2 43039   0.0460 193.3172 0001472 294.4051 188.1983  1.00270884 24178
GSAT0215 (GALILEO 19)   
1 43055U 17079A   24189.83728242  .00000028  00000+0  00000+0 0  9999
2 43055  55.3325 241.0299 0003115 255.6102 104.4478  1.70474627 40897
GSAT0216 (GALILEO 20)   
1 43056U 17079B   24188.36923443  .00000033  00000+0  00000+0 0  9993
2 43056  55.3327 241.0700 0004728 266.8574  93.1855  1.70474438 40887
GSAT0217 (GALILEO 21)   
1 43057U 17079C   24188.58970510  .00000032  00000+0  00000+0 0  9994
2 43057  55.3360 241.0626 0001619 286.8895  73.1893  1.70474365 40874
GSAT0218 (GALILEO 22)   
1 43058U 17079D   24190.56949010  .00000027  00000+0  00000+0 0  9991
2 43058  55.3309 241.0058 0004527 265.3393  94.6986  1.70474716 40908
GCOM-C (SHIKISAI)       
1 43065U 17082A   24190.82318298  .00000242  00000+0  11669-3 0  9996
2 43065  98.5683 262.4100 0001293  97.9334 262.1994 14.27303723340893
IRIDIUM 135             
1 43070U 17083A   24190.93133598  .00000373  00000+0  12607-3 0  9991
2 43070  86.3956 257.9784 0002232  85.7896 274.3555 14.34219444342632
IRIDIUM 138             
1 43071U 17083B   24190.88693423  .00000036  00000+0  58144-5 0  9998
2 43071  86.3945 257.7116 0002244 103.6881 256.4565 14.34216385342616
IRIDIUM 116             
1 43072U 17083C   24190.92499059  .00000048  00000+0  10237-4 0  9996
2 43072  86.3956 257.9758 0002343  92.0493 268.0971 14.34218004342657
IRIDIUM 130             
1 43073U 17083D   24190.89327862  .00000060  00000+0  14227-4 0  9992
2 43073  86.3964 258.1958 0002369  94.8616 265.2851 14.34217339342596
IRIDIUM 151             
1 43074U 17083E   24190.93767526 -.00000009  00000+0 -10359-4 0  9990
2 43074  86.3956 258.0119 0001960  92.6432 267.4988 14.34217666342626
IRIDIUM 134             
1 43075U 17083F   24190.90596317  .00000045  00000+0  90757-5 0  9995
2 43075  86.3959 258.0239 0002497  93.3429 266.8052 14.34217996342589
IRIDIUM 137             
1 43076U 17083G   24190.91864723  .00000275  00000+0  90970-4 0  9997
2 43076  86.3960 258.0970 0002113  82.4727 277.6709 14.34218871342659
IRIDIUM 141             
1 43077U 17083H   24190.91230700  .00000373  00000+0  12617-3 0  9990
2 43077  86.3955 257.9705 0002199  98.4702 261.6743 14.34219316342658
IRIDIUM 153             
1 43078U 17083J   24190.58540924  .00000212  00000+0  68589-4 0  9998
2 43078  86.3968 226.5754 0002127 106.5300 253.6130 14.34217959343715
IRIDIUM 131             
1 43079U 17083K   24190.89961404  .00000338  00000+0  11366-3 0  9992
2 43079  86.3962 258.1145 0002108  91.6768 268.4669 14.34217103342582
LKW-2                   
1 43080U 17084A   24191.17289603  .00008846  00000+0  36939-3 0  9996
2 43080  97.2223 250.8618 0004716 130.8979 229.2668 15.23853138363867
YAOGAN-30 04A           
1 43081U 17085A   24191.18118895  .00003369  00000+0  30068-3 0  9995
2 43081  34.9955 125.6461 0002523  83.0080 277.0913 14.95517707356435
YAOGAN-30 04B           
1 43082U 17085B   24191.20420132  .00003316  00000+0  29620-3 0  9993
2 43082  34.9945 125.6554 0006344 293.4403  66.5636 14.95470124356433
YAOGAN-30 04C           
1 43083U 17085C   24191.15853687  .00003533  00000+0  31522-3 0  9998
2 43083  34.9949 126.3000 0003609  84.4776 275.6341 14.95501771356433
SUPERVIEW-1 03          
1 43099U 18002A   24191.21233219  .00019074  00000+0  53412-3 0  9994
2 43099  97.3747 271.5074 0002292  12.8753 347.2550 15.36672712359992
SUPERVIEW-1 04          
1 43100U 18002B   24191.18323499  .00020214  00000+0  54180-3 0  9994
2 43100  97.3771 272.1311 0001785 127.2725 232.8683 15.38021867360011
BEIDOU-3 M7             
1 43107U 18003A   24190.03980192 -.00000105  00000+0  00000+0 0  9990
2 43107  54.9207 326.9085 0004392  81.9478 278.0948  1.86232640 44156
BEIDOU-3 M8             
1 43108U 18003B   24190.51736728 -.00000104  00000+0  00000+0 0  9997
2 43108  54.9134 326.8774 0002938 249.3267 110.6362  1.86230976 44162
CARTOSAT-2F             
1 43111U 18004A   24191.17096876  .00006749  00000+0  32250-3 0  9994
2 43111  97.4295 250.3080 0001377 187.4331 172.6884 15.19343520359838
LEO 1 (LEO VANTAGE 1)   
1 43113U 18004C   24190.90061018  .00004542  00000+0  33904-3 0  9992
2 43113  99.3007   6.6664 0376833  81.7105 282.6631 14.60762151333798
CARBONITE 2             
1 43115U 18004E   24191.18846630  .00016974  00000+0  38667-3 0  9999
2 43115  97.2673 262.1709 0006819 180.8007 179.3231 15.42982130361332
LKW-3                   
1 43146U 18006A   24191.16882222  .00009326  00000+0  39937-3 0  9994
2 43146  97.5754 325.8034 0001693 136.9819 223.1550 15.23009918360643
ASNARO-2                
1 43152U 18007A   24191.16821849  .00014855  00000+0  64541-3 0  9992
2 43152  97.4106 197.5857 0001812  80.0297 280.1144 15.22390919359697
XIAOXIANG-2             
1 43155U 18008A   24191.18875215  .00149397  00000+0  13367-2 0  9993
2 43155  97.2304 245.7566 0001456 309.7040  50.4093 15.67887991358344
ZHOU ENLAI              
1 43156U 18008B   24190.78056446  .00892394  37437-3  19110-2 0  9998
2 43156  97.2279 248.1695 0009081 249.3674 110.6630 15.98571019358374
QUANTUTONG 1            
1 43158U 18008D   24191.09663652  .00061019  00000+0  10674-2 0  9998
2 43158  97.2531 239.8023 0004022  29.9815 330.1667 15.50423632357865
JILIN-1 07              
1 43159U 18008E   24191.20339657  .00005935  00000+0  28394-3 0  9991
2 43159  97.2426 223.5311 0012763  61.2464 299.0051 15.19270460356918
JILIN-1 08              
1 43160U 18008F   24191.15154111  .00006289  00000+0  30307-3 0  9997
2 43160  97.2435 223.2014 0009839  74.9691 285.2632 15.19018793356898
SBIRS GEO-3 (USA 282)   
1 43162U 18009A   24190.80625432  .00000128  00000+0  00000+0 0  9999
2 43162   2.3354 336.5472 0001463 134.4449 307.0867  1.00272666 23745
WEINA 1A                
1 43169U 18011A   24190.94994293  .00003235  00000+0  29412-3 0  9992
2 43169  34.9964 130.2930 0003510 330.8488  29.2022 14.94794514351825
YAOGAN-30 05A           
1 43170U 18011B   24191.19774915  .00003422  00000+0  30558-3 0  9990
2 43170  34.9958 126.4228 0006762 265.2467  94.7466 14.95473750351878
YAOGAN-30 05B           
1 43171U 18011C   24191.19325954  .00003410  00000+0  30467-3 0  9992
2 43171  34.9950 126.2608 0004358 297.3554  62.6708 14.95463423351872
YAOGAN-30 05C           
1 43172U 18011D   24191.18666468  .00003368  00000+0  30081-3 0  9994
2 43172  34.9964 126.4633 0003915 332.3215  27.7283 14.95477113351871
AL YAH 3                
1 43174U 18012A   24190.90545146 -.00000157  00000+0  00000+0 0  9993
2 43174   0.0743 267.0300 0002126 222.4154 103.7324  1.00270830 23741
SES-14                  
1 43175U 18012B   24190.81646564 -.00000280  00000+0  00000+0 0  9997
2 43175   0.0110   9.4764 0000942  99.6440  64.5380  1.00272075 23949
KANOPUS-V 3             
1 43180U 18014A   24191.19509246  .00003704  00000+0  16550-3 0  9996
2 43180  97.3956  98.5831 0001630  89.7113 270.4310 15.21952251356981
KANOPUS-V 4             
1 43181U 18014B   24191.16260417  .00000629  00000+0  30588-4 0  9999
2 43181  97.3964  98.6355 0001762  97.0421 263.1016 15.21979268356993
LEMUR-2-JIN-LUEN        
1 43182U 18014C   24190.97457821  .00011653  00000+0  66004-3 0  9995
2 43182  97.5855  93.9911 0010085 279.3363  80.6727 15.13134838352049
LEMUR-2-URAMCHANSOL     
1 43183U 18014D   24190.69482506  .00019992  00000+0  10130-2 0  9995
2 43183  97.5862  95.3687 0009629 265.9967  94.0165 15.16968561352100
LEMUR-2-KADI            
1 43184U 18014E   24191.17702350  .00011339  00000+0  62464-3 0  9997
2 43184  97.5656  93.6468 0008714 249.3072 110.7226 15.14146964352092
LEMUR-2-THENICKMOLO     
1 43185U 18014F   24190.78396942  .00016224  00000+0  84937-3 0  9997
2 43185  97.5829  94.5030 0005393 252.1591 107.9053 15.15890225352079
S-NET D                 
1 43186U 18014G   24190.79848248  .00005472  00000+0  39116-3 0  9992
2 43186  97.5897  92.2616 0008687 298.0545  61.9803 15.04849670351759
